{"type": "FeatureCollection", "features": [ {"type": "Feature", "properties": {"norad_id": 40796, "name": "COSMOS 2251 DEB", "group": "cosmos-2251-debris", "lat": 25.063272468983193, "lon": -55.248853607586106, "alt_km": 638.7221890601404, "timestamp": "2025-12-17T15:50:10.180477+00:00", "meta": {"OBJECT_NAME": "COSMOS 2251 DEB", "OBJECT_ID": "1993-036BVZ", "EPOCH": "2025-12-16T16:32:21.335712", "MEAN_MOTION": 14.81756941, "ECCENTRICITY": 0.00560758, "INCLINATION": 74.0116, "RA_OF_ASC_NODE": 134.3763, "ARG_OF_PERICENTER": 270.3291, "MEAN_ANOMALY": 108.1026, "EPHEMERIS_TYPE": 0, "CLASSIFICATION_TYPE": "U", "NORAD_CAT_ID": 40796, "ELEMENT_SET_NO": 999, "REV_AT_EPOCH": 76217, "BSTAR": 0.0007869592, "MEAN_MOTION_DOT": 6.348e-05, "MEAN_MOTION_DDOT": 0}, "tle": {"line1": "1 40796U 93036BVZ 25350.68913583  .00006348  00000+0  78696-3 0  9994", "line2": "2 40796  74.0116 134.3763 0056075 270.3291 108.1026 14.81756941762178"}}, "geometry": {"type": "Point", "coordinates": [-55.248853607586106, 25.063272468983193]}}, {"type": "Feature", "properties": {"norad_id": 40797, "name": "COSMOS 2251 DEB", "group": "cosmos-2251-debris", "lat": 26.815182404423588, "lon": 93.43989151407509, "alt_km": 488.33933639132374, "timestamp": "2025-12-17T15:50:10.180487+00:00", "meta": {"OBJECT_NAME": "COSMOS 2251 DEB", "OBJECT_ID": "1993-036BWA", "EPOCH": "2025-12-15T23:59:57.193728", "MEAN_MOTION": 15.11379927, "ECCENTRICITY": 0.00719971, "INCLINATION": 73.9214, "RA_OF_ASC_NODE": 88.513, "ARG_OF_PERICENTER": 359.8432, "MEAN_ANOMALY": 0.2724, "EPHEMERIS_TYPE": 0, "CLASSIFICATION_TYPE": "U", "NORAD_CAT_ID": 40797, "ELEMENT_SET_NO": 999, "REV_AT_EPOCH": 64693, "BSTAR": 0.00052373228, "MEAN_MOTION_DOT": 9.374e-05, "MEAN_MOTION_DDOT": 0}, "tle": {"line1": "1 40797U 93036BWA 25349.99996752  .00009374  00000+0  52373-3 0  9992", "line2": "2 40797  73.9214  88.5130 0071997 359.8432   0.2724 15.11379927646935"}}, "geometry": {"type": "Point", "coordinates": [93.43989151407509, 26.815182404423588]}}, {"type": "Feature", "properties": {"norad_id": 40799, "name": "COSMOS 2251 DEB", "group": "cosmos-2251-debris", "lat": 42.81862290162745, "lon": -107.14895123796312, "alt_km": 653.4613827850217, "timestamp": "2025-12-17T15:50:10.180498+00:00", "meta": {"OBJECT_NAME": "COSMOS 2251 DEB", "OBJECT_ID": "1993-036BWC", "EPOCH": "2025-12-16T13:34:01.060320", "MEAN_MOTION": 14.96697184, "ECCENTRICITY": 0.01191597, "INCLINATION": 73.9265, "RA_OF_ASC_NODE": 90.5746, "ARG_OF_PERICENTER": 331.7111, "MEAN_ANOMALY": 27.7633, "EPHEMERIS_TYPE": 0, "CLASSIFICATION_TYPE": "U", "NORAD_CAT_ID": 40799, "ELEMENT_SET_NO": 999, "REV_AT_EPOCH": 50034, "BSTAR": 0.00030724083, "MEAN_MOTION_DOT": 4.009e-05, "MEAN_MOTION_DDOT": 0}, "tle": {"line1": "1 40799U 93036BWC 25350.56529005  .00004009  00000+0  30724-3 0  9998", "line2": "2 40799  73.9265  90.5746 0119159 331.7111  27.7633 14.96697184500342"}}, "geometry": {"type": "Point", "coordinates": [-107.14895123796312, 42.81862290162745]}}, {"type": "Feature", "properties": {"norad_id": 40802, "name": "COSMOS 2251 DEB", "group": "cosmos-2251-debris", "lat": -22.966173519174646, "lon": -29.672235739573274, "alt_km": 606.3793759206674, "timestamp": "2025-12-17T15:50:10.180508+00:00", "meta": {"OBJECT_NAME": "COSMOS 2251 DEB", "OBJECT_ID": "1993-036BWF", "EPOCH": "2025-12-14T04:02:34.779840", "MEAN_MOTION": 14.7763135, "ECCENTRICITY": 0.00631025, "INCLINATION": 74.0398, "RA_OF_ASC_NODE": 150.2093, "ARG_OF_PERICENTER": 248.6873, "MEAN_ANOMALY": 110.7559, "EPHEMERIS_TYPE": 0, "CLASSIFICATION_TYPE": "U", "NORAD_CAT_ID": 40802, "ELEMENT_SET_NO": 999, "REV_AT_EPOCH": 64430, "BSTAR": 0.00084362537, "MEAN_MOTION_DOT": 6.208e-05, "MEAN_MOTION_DDOT": 0}, "tle": {"line1": "1 40802U 93036BWF 25348.16845810  .00006208  00000+0  84363-3 0  9992", "line2": "2 40802  74.0398 150.2093 0063102 248.6873 110.7559 14.77631350644309"}}, "geometry": {"type": "Point", "coordinates": [-29.672235739573274, -22.966173519174646]}}, {"type": "Feature", "properties": {"norad_id": 40803, "name": "COSMOS 2251 DEB", "group": "cosmos-2251-debris", "lat": -47.402792198597176, "lon": 24.45548519733726, "alt_km": 710.5833379068363, "timestamp": "2025-12-17T15:50:10.180518+00:00", "meta": {"OBJECT_NAME": "COSMOS 2251 DEB", "OBJECT_ID": "1993-036BWG", "EPOCH": "2025-12-05T22:55:29.451072", "MEAN_MOTION": 14.51792027, "ECCENTRICITY": 0.00362816, "INCLINATION": 74.0122, "RA_OF_ASC_NODE": 64.6912, "ARG_OF_PERICENTER": 281.8159, "MEAN_ANOMALY": 77.8934, "EPHEMERIS_TYPE": 0, "CLASSIFICATION_TYPE": "U", "NORAD_CAT_ID": 40803, "ELEMENT_SET_NO": 999, "REV_AT_EPOCH": 58654, "BSTAR": 0.00062935795, "MEAN_MOTION_DOT": 2.525e-05, "MEAN_MOTION_DDOT": 0}, "tle": {"line1": "1 40803U 93036BWG 25339.95520198  .00002525  00000+0  62936-3 0  9999", "line2": "2 40803  74.0122  64.6912 0036281 281.8159  77.8934 14.51792027586549"}}, "geometry": {"type": "Point", "coordinates": [24.45548519733726, -47.402792198597176]}}, {"type": "Feature", "properties": {"norad_id": 40808, "name": "COSMOS 2251 DEB", "group": "cosmos-2251-debris", "lat": 35.923293843377245, "lon": -55.990966564181896, "alt_km": 660.4417819702303, "timestamp": "2025-12-17T15:50:10.180528+00:00", "meta": {"OBJECT_NAME": "COSMOS 2251 DEB", "OBJECT_ID": "1993-036BWM", "EPOCH": "2025-12-14T10:26:23.947296", "MEAN_MOTION": 14.67521504, "ECCENTRICITY": 0.00090305, "INCLINATION": 74.0408, "RA_OF_ASC_NODE": 142.1983, "ARG_OF_PERICENTER": 179.2198, "MEAN_ANOMALY": 212.7135, "EPHEMERIS_TYPE": 0, "CLASSIFICATION_TYPE": "U", "NORAD_CAT_ID": 40808, "ELEMENT_SET_NO": 999, "REV_AT_EPOCH": 63644, "BSTAR": 0.0018628383, "MEAN_MOTION_DOT": 0.00010555, "MEAN_MOTION_DDOT": 0}, "tle": {"line1": "1 40808U 93036BWM 25348.43499939  .00010555  00000+0  18628-2 0  9995", "line2": "2 40808  74.0408 142.1983 0009030 179.2198 212.7135 14.67521504636441"}}, "geometry": {"type": "Point", "coordinates": [-55.990966564181896, 35.923293843377245]}}, {"type": "Feature", "properties": {"norad_id": 40810, "name": "COSMOS 2251 DEB", "group": "cosmos-2251-debris", "lat": -73.02569872577546, "lon": -44.954209219340584, "alt_km": 695.4131770721624, "timestamp": "2025-12-17T15:50:10.180539+00:00", "meta": {"OBJECT_NAME": "COSMOS 2251 DEB", "OBJECT_ID": "1993-036BWP", "EPOCH": "2025-12-15T05:01:17.555808", "MEAN_MOTION": 14.58738297, "ECCENTRICITY": 0.00184081, "INCLINATION": 74.0368, "RA_OF_ASC_NODE": 70.0332, "ARG_OF_PERICENTER": 221.6033, "MEAN_ANOMALY": 138.3733, "EPHEMERIS_TYPE": 0, "CLASSIFICATION_TYPE": "U", "NORAD_CAT_ID": 40810, "ELEMENT_SET_NO": 999, "REV_AT_EPOCH": 61719, "BSTAR": 0.00049187083, "MEAN_MOTION_DOT": 2.273e-05, "MEAN_MOTION_DDOT": 0}, "tle": {"line1": "1 40810U 93036BWP 25349.20923097  .00002273  00000+0  49187-3 0  9994", "line2": "2 40810  74.0368  70.0332 0018408 221.6033 138.3733 14.58738297617192"}}, "geometry": {"type": "Point", "coordinates": [-44.954209219340584, -73.02569872577546]}}, {"type": "Feature", "properties": {"norad_id": 46271, "name": "COSMOS 2251 DEB", "group": "cosmos-2251-debris", "lat": 13.526578506712365, "lon": 72.90857359149003, "alt_km": 750.0833124577175, "timestamp": "2025-12-17T15:50:10.180549+00:00", "meta": {"OBJECT_NAME": "COSMOS 2251 DEB", "OBJECT_ID": "1993-036BWT", "EPOCH": "2025-12-14T23:15:23.859360", "MEAN_MOTION": 14.51434388, "ECCENTRICITY": 0.00401696, "INCLINATION": 74.0488, "RA_OF_ASC_NODE": 74.0218, "ARG_OF_PERICENTER": 195.2544, "MEAN_ANOMALY": 164.741, "EPHEMERIS_TYPE": 0, "CLASSIFICATION_TYPE": "U", "NORAD_CAT_ID": 46271, "ELEMENT_SET_NO": 999, "REV_AT_EPOCH": 84674, "BSTAR": 0.00028085517, "MEAN_MOTION_DOT": 1.104e-05, "MEAN_MOTION_DDOT": 0}, "tle": {"line1": "1 46271U 93036BWT 25348.96902615  .00001104  00000+0  28086-3 0  9993", "line2": "2 46271  74.0488  74.0218 0040169 195.2544 164.7410 14.51434388846748"}}, "geometry": {"type": "Point", "coordinates": [72.90857359149003, 13.526578506712365]}}, {"type": "Feature", "properties": {"norad_id": 46430, "name": "COSMOS 2251 DEB", "group": "cosmos-2251-debris", "lat": 70.09179075811925, "lon": 39.842523636994564, "alt_km": 786.56914274475, "timestamp": "2025-12-17T15:50:10.180560+00:00", "meta": {"OBJECT_NAME": "COSMOS 2251 DEB", "OBJECT_ID": "1993-036BWU", "EPOCH": "2025-12-12T18:01:09.115680", "MEAN_MOTION": 14.51304268, "ECCENTRICITY": 0.01036453, "INCLINATION": 73.9144, "RA_OF_ASC_NODE": 356.326, "ARG_OF_PERICENTER": 276.5668, "MEAN_ANOMALY": 82.3702, "EPHEMERIS_TYPE": 0, "CLASSIFICATION_TYPE": "U", "NORAD_CAT_ID": 46430, "ELEMENT_SET_NO": 999, "REV_AT_EPOCH": 79683, "BSTAR": 0.0031599798, "MEAN_MOTION_DOT": 0.00013483, "MEAN_MOTION_DDOT": 0}, "tle": {"line1": "1 46430U 93036BWU 25346.75079995  .00013483  00000+0  31600-2 0  9999", "line2": "2 46430  73.9144 356.3260 0103645 276.5668  82.3702 14.51304268796830"}}, "geometry": {"type": "Point", "coordinates": [39.842523636994564, 70.09179075811925]}}, {"type": "Feature", "properties": {"norad_id": 46432, "name": "COSMOS 2251 DEB", "group": "cosmos-2251-debris", "lat": -19.604810497282635, "lon": 97.62682226983443, "alt_km": 1287.824389969781, "timestamp": "2025-12-17T15:50:10.180570+00:00", "meta": {"OBJECT_NAME": "COSMOS 2251 DEB", "OBJECT_ID": "1993-036BWW", "EPOCH": "2025-12-16T14:54:01.415808", "MEAN_MOTION": 13.36645779, "ECCENTRICITY": 0.04740577, "INCLINATION": 73.8726, "RA_OF_ASC_NODE": 105.1782, "ARG_OF_PERICENTER": 222.0894, "MEAN_ANOMALY": 155.0222, "EPHEMERIS_TYPE": 0, "CLASSIFICATION_TYPE": "U", "NORAD_CAT_ID": 46432, "ELEMENT_SET_NO": 999, "REV_AT_EPOCH": 67018, "BSTAR": 0.0010887976, "MEAN_MOTION_DOT": 1.051e-05, "MEAN_MOTION_DDOT": 0}, "tle": {"line1": "1 46432U 93036BWW 25350.62084972  .00001051  00000+0  10888-2 0  9996", "line2": "2 46432  73.8726 105.1782 0474057 222.0894 155.0222 13.36645779670182"}}, "geometry": {"type": "Point", "coordinates": [97.62682226983443, -19.604810497282635]}}]}